[{"OBJECT_NAME":"STARLINK-30114","OBJECT_ID":"2023-079D","EPOCH":"2026-03-09T22:00:01.999584","MEAN_MOTION":15.20507286,"ECCENTRICITY":0.00017524,"INCLINATION":43,"RA_OF_ASC_NODE":105.3808,"ARG_OF_PERICENTER":290.4549,"MEAN_ANOMALY":126.4056,"EPHEMERIS_TYPE":0,"CLASSIFICATION_TYPE":"U","NORAD_CAT_ID":56826,"ELEMENT_SET_NO":999,"REV_AT_EPOCH":578,"BSTAR":0.0506084,"MEAN_MOTION_DOT":0.01232425,"MEAN_MOTION_DDOT":0},{"OBJECT_NAME":"JAY-C","OBJECT_ID":"2025-009BM","EPOCH":"2026-03-09T21:49:25.741344","MEAN_MOTION":15.21616071,"ECCENTRICITY":0.00037153,"INCLINATION":97.4007,"RA_OF_ASC_NODE":149.4579,"ARG_OF_PERICENTER":347.8678,"MEAN_ANOMALY":12.2468,"EPHEMERIS_TYPE":0,"CLASSIFICATION_TYPE":"U","NORAD_CAT_ID":62668,"ELEMENT_SET_NO":999,"REV_AT_EPOCH":12127,"BSTAR":0.00023436914,"MEAN_MOTION_DOT":5.223e-5,"MEAN_MOTION_DDOT":0}]
